start=new Date('2021-11-16T00:00:00.000Z').valueOf();
sats=[{"GP_ID":"189837026","ELEMENT_SET_NO":"999","ECCENTRICITY":"0.00013590","DECAY_DATE":null,"INCLINATION":"53.0549","EPOCH":"2021-11-15T16:28:34.050144","BSTAR":"-0.00001853600000","OBJECT_TYPE":"PAYLOAD","TLE_LINE2":"2 45569  53.0549 317.0864 0001359  66.0288 294.0843 15.06392408 87973","TLE_LINE1":"1 45569U 20025AQ  21319.68650521 -.00000557  00000-0 -18536-4 0  9993","REV_AT_EPOCH":"8797","CENTER_NAME":"EARTH","LAUNCH_DATE":"2020-04-22","TIME_SYSTEM":"UTC","OBJECT_ID":"2020-025AQ","ARG_OF_PERICENTER":"66.0288","RA_OF_ASC_NODE":"317.0864","MEAN_ANOMALY":"294.0843","SITE":"AFETR","MEAN_ELEMENT_THEORY":"SGP4","COUNTRY_CODE":"US","APOAPSIS":"548.178","RCS_SIZE":"LARGE","MEAN_MOTION_DDOT":"0.0000000000000","FILE":"3215928","SEMIMAJOR_AXIS":"6925.372","MEAN_MOTION_DOT":"-0.00000557","PERIOD":"95.593","NORAD_CAT_ID":"45569","CLASSIFICATION_TYPE":"U","MEAN_MOTION":"15.06392408","REF_FRAME":"TEME","PERIAPSIS":"546.296","EPHEMERIS_TYPE":"0","OBJECT_NAME":"STARLINK-1366"},{"GP_ID":"189807984","EPOCH":"2021-11-15T11:31:19.536672","INCLINATION":"53.0546","BSTAR":"0.00012854000000","OBJECT_TYPE":"PAYLOAD","ELEMENT_SET_NO":"999","ECCENTRICITY":"0.00015350","DECAY_DATE":null,"REV_AT_EPOCH":"8794","CENTER_NAME":"EARTH","TLE_LINE2":"2 45570  53.0546 318.0127 0001535  67.1335 292.9816 15.06401568 87948","TLE_LINE1":"1 45570U 20025AR  21319.48008723  .00001634  00000-0  12854-3 0  9995","OBJECT_ID":"2020-025AR","TIME_SYSTEM":"UTC","LAUNCH_DATE":"2020-04-22","APOAPSIS":"548.272","ARG_OF_PERICENTER":"67.1335","RA_OF_ASC_NODE":"318.0127","SITE":"AFETR","MEAN_ANOMALY":"292.9816","MEAN_ELEMENT_THEORY":"SGP4","COUNTRY_CODE":"US","MEAN_MOTION_DDOT":"0.0000000000000","FILE":"3215681","RCS_SIZE":"LARGE","MEAN_MOTION":"15.06401568","SEMIMAJOR_AXIS":"6925.344","MEAN_MOTION_DOT":"0.00001634","PERIOD":"95.592","CLASSIFICATION_TYPE":"U","NORAD_CAT_ID":"45570","PERIAPSIS":"546.146","EPHEMERIS_TYPE":"0","OBJECT_NAME":"STARLINK-1376","REF_FRAME":"TEME"},{"SEMIMAJOR_AXIS":"6925.341","MEAN_MOTION_DOT":"0.00001562","NORAD_CAT_ID":"45571","PERIOD":"95.592","CLASSIFICATION_TYPE":"U","MEAN_MOTION":"15.06402336","REF_FRAME":"TEME","PERIAPSIS":"546.125","OBJECT_NAME":"STARLINK-1261","EPHEMERIS_TYPE":"0","ARG_OF_PERICENTER":"73.3258","RA_OF_ASC_NODE":"307.0568","MEAN_ANOMALY":"286.7902","SITE":"AFETR","MEAN_ELEMENT_THEORY":"SGP4","COUNTRY_CODE":"US","APOAPSIS":"548.287","RCS_SIZE":"LARGE","MEAN_MOTION_DDOT":"0.0000000000000","FILE":"3215928","TLE_LINE2":"2 45571  53.0552 307.0568 0001561  73.3258 286.7902 15.06402336 88138","TLE_LINE1":"1 45571U 20025AS  21319.69479163  .00001562  00000-0  12375-3 0  9997","REV_AT_EPOCH":"8813","CENTER_NAME":"EARTH","LAUNCH_DATE":"2020-04-22","TIME_SYSTEM":"UTC","OBJECT_ID":"2020-025AS","GP_ID":"189836024","ELEMENT_SET_NO":"999","ECCENTRICITY":"0.00015610","DECAY_DATE":null,"EPOCH":"2021-11-15T16:40:29.996832","INCLINATION":"53.0552","BSTAR":"0.00012375000000","OBJECT_TYPE":"PAYLOAD"},{"OBJECT_TYPE":"PAYLOAD","BSTAR":"0.00011120000000","EPOCH":"2021-11-15T22:52:01.646976","INCLINATION":"53.0552","DECAY_DATE":null,"ECCENTRICITY":"0.00016190","ELEMENT_SET_NO":"999","GP_ID":"189836276","OBJECT_ID":"2020-025AT","TIME_SYSTEM":"UTC","LAUNCH_DATE":"2020-04-22","CENTER_NAME":"EARTH","REV_AT_EPOCH":"8816","TLE_LINE1":"1 45572U 20025AT  21319.95279684  .00001375  00000-0  11120-3 0  9992","TLE_LINE2":"2 45572  53.0552 305.8985 0001619  62.7807 297.3347 15.06395882 88165","FILE":"3215928","MEAN_MOTION_DDOT":"0.0000000000000","RCS_SIZE":"LARGE","APOAPSIS":"548.347","COUNTRY_CODE":"US","MEAN_ELEMENT_THEORY":"SGP4","SITE":"AFETR","MEAN_ANOMALY":"297.3347","RA_OF_ASC_NODE":"305.8985","ARG_OF_PERICENTER":"62.7807","EPHEMERIS_TYPE":"0","OBJECT_NAME":"STARLINK-1320","PERIAPSIS":"546.105","REF_FRAME":"TEME","MEAN_MOTION":"15.06395882","CLASSIFICATION_TYPE":"U","PERIOD":"95.592","NORAD_CAT_ID":"45572","MEAN_MOTION_DOT":"0.00001375","SEMIMAJOR_AXIS":"6925.361"},{"APOAPSIS":"548.351","MEAN_ANOMALY":"292.0681","SITE":"AFETR","MEAN_ELEMENT_THEORY":"SGP4","COUNTRY_CODE":"US","ARG_OF_PERICENTER":"68.0483","RA_OF_ASC_NODE":"306.2885","MEAN_MOTION_DDOT":"0.0000000000000","FILE":"3215928","RCS_SIZE":"LARGE","MEAN_MOTION":"15.06399649","MEAN_MOTION_DOT":"0.00000509","PERIOD":"95.592","CLASSIFICATION_TYPE":"U","NORAD_CAT_ID":"45573","SEMIMAJOR_AXIS":"6925.350","OBJECT_NAME":"STARLINK-1321","EPHEMERIS_TYPE":"0","PERIAPSIS":"546.078","REF_FRAME":"TEME","GP_ID":"189836527","INCLINATION":"53.0550","EPOCH":"2021-11-15T20:44:39.913440","OBJECT_TYPE":"PAYLOAD","BSTAR":"0.00005309900000","ECCENTRICITY":"0.00016410","DECAY_DATE":null,"ELEMENT_SET_NO":"999","CENTER_NAME":"EARTH","REV_AT_EPOCH":"8784","TLE_LINE2":"2 45573  53.0550 306.2885 0001641  68.0483 292.0681 15.06399649 87844","TLE_LINE1":"1 45573U 20025AU  21319.86435085  .00000509  00000-0  53099-4 0  9992","TIME_SYSTEM":"UTC","OBJECT_ID":"2020-025AU","LAUNCH_DATE":"2020-04-22"},{"TLE_LINE2":"2 45574  53.0553 307.0695 0001503  76.8342 283.2815 15.06400851 88136","TLE_LINE1":"1 45574U 20025AV  21319.69111588  .00002209  00000-0  16713-3 0  9993","CENTER_NAME":"EARTH","REV_AT_EPOCH":"8813","LAUNCH_DATE":"2020-04-22","TIME_SYSTEM":"UTC","OBJECT_ID":"2020-025AV","GP_ID":"189835275","ECCENTRICITY":"0.00015030","DECAY_DATE":null,"ELEMENT_SET_NO":"999","EPOCH":"2021-11-15T16:35:12.412032","INCLINATION":"53.0553","BSTAR":"0.00016713000000","OBJECT_TYPE":"PAYLOAD","MEAN_MOTION_DOT":"0.00002209","PERIOD":"95.592","CLASSIFICATION_TYPE":"U","NORAD_CAT_ID":"45574","SEMIMAJOR_AXIS":"6925.346","MEAN_MOTION":"15.06400851","REF_FRAME":"TEME","OBJECT_NAME":"STARLINK-1324","EPHEMERIS_TYPE":"0","PERIAPSIS":"546.170","SITE":"AFETR","MEAN_ELEMENT_THEORY":"SGP4","MEAN_ANOMALY":"283.2815","COUNTRY_CODE":"US","ARG_OF_PERICENTER":"76.8342","RA_OF_ASC_NODE":"307.0695","APOAPSIS":"548.252","RCS_SIZE":"LARGE","MEAN_MOTION_DDOT":"0.0000000000000","FILE":"3215928"},{"REF_FRAME":"TEME","OBJECT_NAME":"STARLINK-1326","EPHEMERIS_TYPE":"0","PERIAPSIS":"539.792","PERIOD":"95.459","NORAD_CAT_ID":"45575","CLASSIFICATION_TYPE":"U","MEAN_MOTION_DOT":"0.00004852","SEMIMAJOR_AXIS":"6918.902","MEAN_MOTION":"15.08505850","RCS_SIZE":"LARGE","FILE":"3215928","MEAN_MOTION_DDOT":"0.0000000000000","COUNTRY_CODE":"US","SITE":"AFETR","MEAN_ANOMALY":"282.5483","MEAN_ELEMENT_THEORY":"SGP4","RA_OF_ASC_NODE":"303.2469","ARG_OF_PERICENTER":"77.5664","APOAPSIS":"541.742","LAUNCH_DATE":"2020-04-22","OBJECT_ID":"2020-025AW","TIME_SYSTEM":"UTC","TLE_LINE1":"1 45575U 20025AW  21319.68939689  .00004852  00000-0  32564-3 0  9991","TLE_LINE2":"2 45575  53.0007 303.2469 0001409  77.5664 282.5483 15.08505850 88161","CENTER_NAME":"EARTH","REV_AT_EPOCH":"8816","DECAY_DATE":null,"ECCENTRICITY":"0.00014090","ELEMENT_SET_NO":"999","BSTAR":"0.00032564000000","OBJECT_TYPE":"PAYLOAD","EPOCH":"2021-11-15T16:32:43.891296","INCLINATION":"53.0007","GP_ID":"189835525"},{"REF_FRAME":"TEME","OBJECT_NAME":"STARLINK-1328","EPHEMERIS_TYPE":"0","PERIAPSIS":"546.055","CLASSIFICATION_TYPE":"U","PERIOD":"95.592","NORAD_CAT_ID":"45576","MEAN_MOTION_DOT":"0.00002563","SEMIMAJOR_AXIS":"6925.328","MEAN_MOTION":"15.06406611","RCS_SIZE":"LARGE","FILE":"3215681","MEAN_MOTION_DDOT":"0.0000000000000","COUNTRY_CODE":"US","SITE":"AFETR","MEAN_ELEMENT_THEORY":"SGP4","MEAN_ANOMALY":"288.1039","RA_OF_ASC_NODE":"308.4371","ARG_OF_PERICENTER":"72.0129","APOAPSIS":"548.332","LAUNCH_DATE":"2020-04-22","OBJECT_ID":"2020-025AX","TIME_SYSTEM":"UTC","TLE_LINE1":"1 45576U 20025AX  21319.38517629  .00002563  00000-0  19089-3 0  9999","TLE_LINE2":"2 45576  53.0543 308.4371 0001644  72.0129 288.1039 15.06406611 88086","CENTER_NAME":"EARTH","REV_AT_EPOCH":"8808","DECAY_DATE":null,"ECCENTRICITY":"0.00016440","ELEMENT_SET_NO":"999","BSTAR":"0.00019089000000","OBJECT_TYPE":"PAYLOAD","EPOCH":"2021-11-15T09:14:39.231456","INCLINATION":"53.0543","GP_ID":"189807483"},{"LAUNCH_DATE":"2020-04-22","OBJECT_ID":"2020-025AY","TIME_SYSTEM":"UTC","TLE_LINE1":"1 45577U 20025AY  21319.93807187 -.00000339  00000-0 -38749-5 0  9999","TLE_LINE2":"2 45577  53.0536 305.9621 0001529  59.5922 300.5218 15.06393569 88155","CENTER_NAME":"EARTH","REV_AT_EPOCH":"8815","DECAY_DATE":null,"ECCENTRICITY":"0.00015290","ELEMENT_SET_NO":"999","BSTAR":"-0.00000387490000","OBJECT_TYPE":"PAYLOAD","INCLINATION":"53.0536","EPOCH":"2021-11-15T22:30:49.409568","GP_ID":"189837027","REF_FRAME":"TEME","EPHEMERIS_TYPE":"0","OBJECT_NAME":"STARLINK-1330","PERIAPSIS":"546.174","CLASSIFICATION_TYPE":"U","PERIOD":"95.593","NORAD_CAT_ID":"45577","MEAN_MOTION_DOT":"-0.00000339","SEMIMAJOR_AXIS":"6925.368","MEAN_MOTION":"15.06393569","RCS_SIZE":"LARGE","FILE":"3215928","MEAN_MOTION_DDOT":"0.0000000000000","COUNTRY_CODE":"US","SITE":"AFETR","MEAN_ELEMENT_THEORY":"SGP4","MEAN_ANOMALY":"300.5218","RA_OF_ASC_NODE":"305.9621","ARG_OF_PERICENTER":"59.5922","APOAPSIS":"548.292"},{"MEAN_MOTION":"15.06401691","PERIOD":"95.592","NORAD_CAT_ID":"45578","CLASSIFICATION_TYPE":"U","MEAN_MOTION_DOT":"0.00001181","SEMIMAJOR_AXIS":"6925.343","OBJECT_NAME":"STARLINK-1331","EPHEMERIS_TYPE":"0","PERIAPSIS":"546.041","REF_FRAME":"TEME","APOAPSIS":"548.375","COUNTRY_CODE":"US","SITE":"AFETR","MEAN_ANOMALY":"290.4358","MEAN_ELEMENT_THEORY":"SGP4","RA_OF_ASC_NODE":"306.9882","ARG_OF_PERICENTER":"69.6811","FILE":"3215928","MEAN_MOTION_DDOT":"0.0000000000000","RCS_SIZE":"LARGE","CENTER_NAME":"EARTH","REV_AT_EPOCH":"8813","TLE_LINE1":"1 45578U 20025AZ  21319.70954049  .00001181  00000-0  98185-4 0  9998","TLE_LINE2":"2 45578  53.0558 306.9882 0001685  69.6811 290.4358 15.06401691 88138","OBJECT_ID":"2020-025AZ","TIME_SYSTEM":"UTC","LAUNCH_DATE":"2020-04-22","GP_ID":"189835775","OBJECT_TYPE":"PAYLOAD","BSTAR":"0.00009818500000","EPOCH":"2021-11-15T17:01:44.298336","INCLINATION":"53.0558","DECAY_DATE":null,"ECCENTRICITY":"0.00016850","ELEMENT_SET_NO":"999"}];
